COSMOS 2425 (716)       
1 29670U 06062A   17305.61022465  .00000019  00000-0  10000-3 0  9994
2 29670  65.3938 300.2260 0021069 337.5495 103.3999  2.13105010 84466
COSMOS 2426 (717)       
1 29671U 06062B   17305.72237565  .00000019  00000-0  10000-3 0  9996
2 29671  65.4116 300.3152 0018107 174.5487 209.7730  2.13103057 84470
COSMOS 2433 (720)       
1 32275U 07052A   17305.69523378 -.00000020  00000-0  10000-3 0  9999
2 32275  65.5799  61.0044 0002125 216.7073 121.3470  2.13104788 77975
COSMOS 2432 (719)       
1 32276U 07052B   17305.66337119 -.00000020  00000-0  10000-3 0  9993
2 32276  65.5920  61.0796 0009429 338.4594 287.7069  2.13103959 77970
COSMOS 2434 (721)       
1 32393U 07065A   17305.62091042  .00000018  00000-0  00000-0 0  9997
2 32393  65.0095 299.3087 0002635 158.9888  10.9801  2.13102975 76684
COSMOS 2436 (723)       
1 32395U 07065C   17305.51947155  .00000019  00000-0  10000-3 0  9997
2 32395  65.0197 299.3613 0014078 348.9689 152.5552  2.13104344 76619
COSMOS 2456 (730)       
1 36111U 09070A   17305.45517152  .00000072  00000-0  00000-0 0  9993
2 36111  64.1793 178.8845 0003800 326.9867 247.4113  2.13102964 61341
COSMOS 2457 (733)       
1 36112U 09070B   17305.87149455  .00000076  00000-0  00000-0 0  9991
2 36112  64.1620 178.7861 0006294 159.6009 142.1336  2.13101738 61354
COSMOS 2458 (734)       
1 36113U 09070C   17305.80324222  .00000075  00000-0  10000-3 0  9995
2 36113  64.1652 178.7983 0002096  34.3572 263.1015  2.13101896 61358
COSMOS 2459 (731)       
1 36400U 10007A   17305.55034411 -.00000021  00000-0  10000-3 0  9998
2 36400  65.4880  60.0983 0025585 354.3483  93.4535  2.13102176 59700
COSMOS 2461 (735)       
1 36401U 10007B   17305.56211596 -.00000021  00000-0  10000-3 0  9991
2 36401  65.4801  60.0745 0007421  81.0829 286.3646  2.13102131 59704
COSMOS 2460 (732)       
1 36402U 10007C   17305.51425323 -.00000021  00000-0  10000-3 0  9992
2 36402  65.4720  60.0478 0001758 129.3169 242.4350  2.13101745 59703
COSMOS 2464 (736)       
1 37139U 10041C   17305.73039853  .00000016  00000-0  00000-0 0  9990
2 37139  64.6145 299.2249 0021884   5.7176 115.9881  2.13102731 55774
COSMOS 2471 (701K)      
1 37372U 11009A   17305.65653794 -.00000022  00000-0  00000-0 0  9999
2 37372  65.4701  59.9894 0008109 223.1234  36.8562  2.13107701 51970
COSMOS 2474 (742)       
1 37829U 11055A   17305.59833346  .00000073  00000-0  00000-0 0  9998
2 37829  64.5030 179.5023 0007500 246.6991 296.6957  2.13101967 47347
COSMOS 2476 (744)       
1 37867U 11064A   17305.89843983  .00000075  00000-0  00000-0 0  9993
2 37867  64.4838 179.5602 0016944 241.5219 218.0765  2.13102010 46700
COSMOS 2477 (745)       
1 37868U 11064B   17305.25724171  .00000069  00000-0  00000-0 0  9994
2 37868  64.4912 179.6278 0014854 243.0741 263.6769  2.13101889 46645
COSMOS 2475 (743)       
1 37869U 11064C   17305.81182741  .00000074  00000-0  00000-0 0  9994
2 37869  64.4991 179.6012 0019265 270.3781 258.3715  2.13102215 46665
COSMOS 2485 (747)       
1 39155U 13019A   17305.79359110  .00000075  00000-0  00000-0 0  9990
2 39155  64.6531 179.6226 0017449 236.0667 188.0818  2.13102065 35178
COSMOS 2492 (754)       
1 39620U 14012A   17305.72891730 -.00000022  00000-0  10000-3 0  9990
2 39620  65.3629  59.9574 0012847 332.1999  76.7448  2.13103415 28129
COSMOS 2500 (755)       
1 40001U 14032A   17305.72152725 -.00000022  00000-0  00000-0 0  9997
2 40001  65.3024  59.9444 0006785 192.0133  74.0247  2.13102732 26336
COSMOS 2501 (702K)      
1 40315U 14075A   17305.71724914  .00000016  00000-0  00000-0 0  9998
2 40315  64.3400 300.5187 0016919 213.0660 214.0087  2.13098596 22740
COSMOS 2514 (751)       
1 41330U 16008A   17305.68955236 -.00000022  00000-0  00000-0 0  9991
2 41330  65.1030  60.0550 0009847 206.0899 215.7564  2.13103363 13507
COSMOS 2516 (753)       
1 41554U 16032A   17305.54251823  .00000017  00000-0  00000-0 0  9995
2 41554  64.5604 300.3266 0014579 225.7973 335.1694  2.13101689 11102
COSMOS 2522 (752)       
1 42939U 17055A   17305.74144015  .00000017  00000-0  00000-0 0  9995
2 42939  64.7900 300.2198 0010286 250.0923 329.8404  2.13101946   867
